[{"OBJECT_NAME":"STARLINK-34993","OBJECT_ID":"2025-191L","EPOCH":"2026-03-09T12:49:48.264960","MEAN_MOTION":15.05653231,"ECCENTRICITY":0.00023748,"INCLINATION":97.6031,"RA_OF_ASC_NODE":301.3335,"ARG_OF_PERICENTER":85.0173,"MEAN_ANOMALY":275.1325,"EPHEMERIS_TYPE":0,"CLASSIFICATION_TYPE":"U","NORAD_CAT_ID":65389,"ELEMENT_SET_NO":999,"REV_AT_EPOCH":3024,"BSTAR":0.0002990409,"MEAN_MOTION_DOT":4.257e-5,"MEAN_MOTION_DDOT":0},{"OBJECT_NAME":"CICERO 3","OBJECT_ID":"2017-042AA","EPOCH":"2026-03-09T22:34:09.559488","MEAN_MOTION":15.06999011,"ECCENTRICITY":0.00123402,"INCLINATION":97.4153,"RA_OF_ASC_NODE":238.2133,"ARG_OF_PERICENTER":85.148,"MEAN_ANOMALY":275.1157,"EPHEMERIS_TYPE":0,"CLASSIFICATION_TYPE":"U","NORAD_CAT_ID":42849,"ELEMENT_SET_NO":999,"REV_AT_EPOCH":47226,"BSTAR":0.00039473976,"MEAN_MOTION_DOT":5.861e-5,"MEAN_MOTION_DDOT":0}]
